start=new Date('2022-06-21T00:00:00.000Z').valueOf();
sats=[{"ECCENTRICITY":"0.00013800","MEAN_ANOMALY":"286.2306","CLASSIFICATION_TYPE":"U","MEAN_MOTION_DOT":"0.00002479","OBJECT_NAME":"STARLINK-2636","REV_AT_EPOCH":"6235","TLE_LINE1":"1 48357U 21038E   22171.73439430  .00002479  00000-0  18525-3 0  9993","REF_FRAME":"TEME","BSTAR":"0.00018525000000","COUNTRY_CODE":"US","DECAY_DATE":null,"TIME_SYSTEM":"UTC","ARG_OF_PERICENTER":"73.8835","PERIOD":"95.592","ELEMENT_SET_NO":"999","INCLINATION":"53.0547","RCS_SIZE":"LARGE","MEAN_MOTION_DDOT":"0.0000000000000","NORAD_CAT_ID":"48357","RA_OF_ASC_NODE":"337.7541","LAUNCH_DATE":"2021-05-04","EPOCH":"2022-06-20T17:37:31.667520","MEAN_ELEMENT_THEORY":"SGP4","PERIAPSIS":"546.234","TLE_LINE2":"2 48357  53.0547 337.7541 0001380  73.8835 286.2306 15.06407668 62355","CENTER_NAME":"EARTH","SITE":"AFETR","APOAPSIS":"548.146","SEMIMAJOR_AXIS":"6925.325","GP_ID":"206512202","OBJECT_ID":"2021-038E","MEAN_MOTION":"15.06407668","FILE":"3498404","OBJECT_TYPE":"PAYLOAD","EPHEMERIS_TYPE":"0"},{"APOAPSIS":"548.565","OBJECT_ID":"2021-038F","SEMIMAJOR_AXIS":"6925.344","GP_ID":"206512451","SITE":"AFETR","TLE_LINE2":"2 48358  53.0546 337.7396 0001959  55.6529 304.4646 15.06401563 62340","CENTER_NAME":"EARTH","PERIAPSIS":"545.852","EPHEMERIS_TYPE":"0","OBJECT_TYPE":"PAYLOAD","FILE":"3498404","MEAN_MOTION":"15.06401563","LAUNCH_DATE":"2021-05-04","MEAN_MOTION_DDOT":"0.0000000000000","NORAD_CAT_ID":"48358","RA_OF_ASC_NODE":"337.7396","MEAN_ELEMENT_THEORY":"SGP4","EPOCH":"2022-06-20T17:28:16.015296","REF_FRAME":"TEME","COUNTRY_CODE":"US","BSTAR":"0.00004404200000","TLE_LINE1":"1 48358U 21038F   22171.72796314  .00000374  00000-0  44042-4 0  9996","ELEMENT_SET_NO":"999","PERIOD":"95.592","RCS_SIZE":"LARGE","INCLINATION":"53.0546","DECAY_DATE":null,"ARG_OF_PERICENTER":"55.6529","TIME_SYSTEM":"UTC","CLASSIFICATION_TYPE":"U","ECCENTRICITY":"0.00019590","MEAN_ANOMALY":"304.4646","OBJECT_NAME":"STARLINK-2624","MEAN_MOTION_DOT":"0.00000374","REV_AT_EPOCH":"6234"},{"TLE_LINE1":"1 48359U 21038G   22171.72428290  .00001498  00000-0  11944-3 0  9994","COUNTRY_CODE":"US","BSTAR":"0.00011944000000","REF_FRAME":"TEME","ARG_OF_PERICENTER":"63.7685","TIME_SYSTEM":"UTC","DECAY_DATE":null,"RCS_SIZE":"LARGE","INCLINATION":"53.0558","ELEMENT_SET_NO":"999","PERIOD":"95.592","CLASSIFICATION_TYPE":"U","ECCENTRICITY":"0.00016870","MEAN_ANOMALY":"296.3478","REV_AT_EPOCH":"6234","OBJECT_NAME":"STARLINK-2628","MEAN_MOTION_DOT":"0.00001498","SITE":"AFETR","TLE_LINE2":"2 48359  53.0558 337.7687 0001687  63.7685 296.3478 15.06401997 62341","CENTER_NAME":"EARTH","PERIAPSIS":"546.039","OBJECT_ID":"2021-038G","SEMIMAJOR_AXIS":"6925.342","GP_ID":"206513696","APOAPSIS":"548.376","FILE":"3498404","MEAN_MOTION":"15.06401997","EPHEMERIS_TYPE":"0","OBJECT_TYPE":"PAYLOAD","RA_OF_ASC_NODE":"337.7687","NORAD_CAT_ID":"48359","MEAN_MOTION_DDOT":"0.0000000000000","LAUNCH_DATE":"2021-05-04","EPOCH":"2022-06-20T17:22:58.042560","MEAN_ELEMENT_THEORY":"SGP4"},{"MEAN_MOTION":"15.06392348","FILE":"3498404","OBJECT_TYPE":"PAYLOAD","EPHEMERIS_TYPE":"0","PERIAPSIS":"546.092","SITE":"AFETR","TLE_LINE2":"2 48360  53.0551 337.7951 0001653  67.9798 292.1367 15.06392348 62344","CENTER_NAME":"EARTH","SEMIMAJOR_AXIS":"6925.372","GP_ID":"206513940","OBJECT_ID":"2021-038H","APOAPSIS":"548.382","EPOCH":"2022-06-20T17:17:40.111296","MEAN_ELEMENT_THEORY":"SGP4","NORAD_CAT_ID":"48360","RA_OF_ASC_NODE":"337.7951","MEAN_MOTION_DDOT":"0.0000000000000","LAUNCH_DATE":"2021-05-04","TIME_SYSTEM":"UTC","ARG_OF_PERICENTER":"67.9798","DECAY_DATE":null,"INCLINATION":"53.0551","RCS_SIZE":"LARGE","PERIOD":"95.593","ELEMENT_SET_NO":"999","TLE_LINE1":"1 48360U 21038H   22171.72060314 -.00000326  00000-0 -30096-5 0  9997","BSTAR":"-0.00000300960000","COUNTRY_CODE":"US","REF_FRAME":"TEME","REV_AT_EPOCH":"6234","MEAN_MOTION_DOT":"-0.00000326","OBJECT_NAME":"STARLINK-2622","ECCENTRICITY":"0.00016530","MEAN_ANOMALY":"292.1367","CLASSIFICATION_TYPE":"U"},{"MEAN_MOTION":"15.06392224","FILE":"3498404","EPHEMERIS_TYPE":"0","OBJECT_TYPE":"PAYLOAD","TLE_LINE2":"2 48361  53.0570 337.4894 0001399  71.9992 288.1150 15.06392224 62356","CENTER_NAME":"EARTH","SITE":"AFETR","PERIAPSIS":"546.269","OBJECT_ID":"2021-038J","SEMIMAJOR_AXIS":"6925.372","GP_ID":"206512703","APOAPSIS":"548.206","EPOCH":"2022-06-20T18:47:53.528352","MEAN_ELEMENT_THEORY":"SGP4","NORAD_CAT_ID":"48361","RA_OF_ASC_NODE":"337.4894","MEAN_MOTION_DDOT":"0.0000000000000","LAUNCH_DATE":"2021-05-04","ARG_OF_PERICENTER":"71.9992","TIME_SYSTEM":"UTC","DECAY_DATE":null,"RCS_SIZE":"LARGE","INCLINATION":"53.0570","ELEMENT_SET_NO":"999","PERIOD":"95.593","TLE_LINE1":"1 48361U 21038J   22171.78325843 -.00000010  00000-0  18251-4 0  9992","COUNTRY_CODE":"US","BSTAR":"0.00001825100000","REF_FRAME":"TEME","REV_AT_EPOCH":"6235","OBJECT_NAME":"STARLINK-2591","MEAN_MOTION_DOT":"-0.00000010","CLASSIFICATION_TYPE":"U","ECCENTRICITY":"0.00013990","MEAN_ANOMALY":"288.1150"},{"EPOCH":"2022-06-20T21:11:12.729408","MEAN_ELEMENT_THEORY":"SGP4","LAUNCH_DATE":"2021-05-04","NORAD_CAT_ID":"48362","RA_OF_ASC_NODE":"337.1396","MEAN_MOTION_DDOT":"0.0000000000000","EPHEMERIS_TYPE":"0","OBJECT_TYPE":"PAYLOAD","FILE":"3498404","MEAN_MOTION":"15.06392850","OBJECT_ID":"2021-038K","GP_ID":"206512952","SEMIMAJOR_AXIS":"6925.370","APOAPSIS":"548.287","TLE_LINE2":"2 48362  53.0545 337.1396 0001519  54.7567 305.3564 15.06392850 62372","SITE":"AFETR","CENTER_NAME":"EARTH","PERIAPSIS":"546.184","REV_AT_EPOCH":"6237","OBJECT_NAME":"STARLINK-2578","MEAN_MOTION_DOT":"-0.00000187","CLASSIFICATION_TYPE":"U","ECCENTRICITY":"0.00015190","MEAN_ANOMALY":"305.3564","RCS_SIZE":"LARGE","INCLINATION":"53.0545","ELEMENT_SET_NO":"999","PERIOD":"95.593","ARG_OF_PERICENTER":"54.7567","TIME_SYSTEM":"UTC","DECAY_DATE":null,"COUNTRY_CODE":"US","BSTAR":"0.00000637730000","REF_FRAME":"TEME","TLE_LINE1":"1 48362U 21038K   22171.88278622 -.00000187  00000-0  63773-5 0  9991"},{"EPOCH":"2022-06-20T19:49:35.818464","MEAN_ELEMENT_THEORY":"SGP4","LAUNCH_DATE":"2021-05-04","NORAD_CAT_ID":"48363","RA_OF_ASC_NODE":"332.3085","MEAN_MOTION_DDOT":"0.0000000000000","OBJECT_TYPE":"PAYLOAD","EPHEMERIS_TYPE":"0","FILE":"3498404","MEAN_MOTION":"15.06401528","GP_ID":"206513196","SEMIMAJOR_AXIS":"6925.344","OBJECT_ID":"2021-038L","APOAPSIS":"548.210","PERIAPSIS":"546.208","CENTER_NAME":"EARTH","TLE_LINE2":"2 48363  53.0563 332.3085 0001445  84.8406 275.2748 15.06401528 62438","SITE":"AFETR","REV_AT_EPOCH":"6243","MEAN_MOTION_DOT":"0.00001182","OBJECT_NAME":"STARLINK-2626","ECCENTRICITY":"0.00014450","MEAN_ANOMALY":"275.2748","CLASSIFICATION_TYPE":"U","INCLINATION":"53.0563","RCS_SIZE":"LARGE","PERIOD":"95.592","ELEMENT_SET_NO":"999","TIME_SYSTEM":"UTC","ARG_OF_PERICENTER":"84.8406","DECAY_DATE":null,"BSTAR":"0.00009823400000","COUNTRY_CODE":"US","REF_FRAME":"TEME","TLE_LINE1":"1 48363U 21038L   22171.82610901  .00001182  00000-0  98234-4 0  9990"},{"NORAD_CAT_ID":"48364","RA_OF_ASC_NODE":"332.4428","MEAN_MOTION_DDOT":"0.0000000000000","LAUNCH_DATE":"2021-05-04","EPOCH":"2022-06-20T20:10:51.301920","MEAN_ELEMENT_THEORY":"SGP4","PERIAPSIS":"546.358","TLE_LINE2":"2 48364  53.0553 332.4428 0001248  75.1845 284.9282 15.06397198 62438","CENTER_NAME":"EARTH","SITE":"AFETR","GP_ID":"206513440","SEMIMAJOR_AXIS":"6925.357","OBJECT_ID":"2021-038M","APOAPSIS":"548.086","FILE":"3498404","MEAN_MOTION":"15.06397198","OBJECT_TYPE":"PAYLOAD","EPHEMERIS_TYPE":"0","MEAN_ANOMALY":"284.9282","ECCENTRICITY":"0.00012480","CLASSIFICATION_TYPE":"U","REV_AT_EPOCH":"6243","MEAN_MOTION_DOT":"0.00000399","OBJECT_NAME":"STARLINK-2611","TLE_LINE1":"1 48364U 21038M   22171.84087155  .00000399  00000-0  45677-4 0  9994","BSTAR":"0.00004567700000","COUNTRY_CODE":"US","REF_FRAME":"TEME","TIME_SYSTEM":"UTC","ARG_OF_PERICENTER":"75.1845","DECAY_DATE":null,"INCLINATION":"53.0553","RCS_SIZE":"LARGE","PERIOD":"95.592","ELEMENT_SET_NO":"999"},{"REV_AT_EPOCH":"6244","OBJECT_NAME":"STARLINK-2608","MEAN_MOTION_DOT":"-0.00000325","CLASSIFICATION_TYPE":"U","MEAN_ANOMALY":"265.9866","ECCENTRICITY":"0.00014890","RCS_SIZE":"LARGE","INCLINATION":"53.0542","ELEMENT_SET_NO":"999","PERIOD":"95.593","ARG_OF_PERICENTER":"94.1294","TIME_SYSTEM":"UTC","DECAY_DATE":null,"COUNTRY_CODE":"US","BSTAR":"-0.00000292720000","REF_FRAME":"TEME","TLE_LINE1":"1 48365U 21038N   22171.86665817 -.00000325  00000-0 -29272-5 0  9999","EPOCH":"2022-06-20T20:47:59.265888","MEAN_ELEMENT_THEORY":"SGP4","LAUNCH_DATE":"2021-05-04","NORAD_CAT_ID":"48365","RA_OF_ASC_NODE":"332.1358","MEAN_MOTION_DDOT":"0.0000000000000","EPHEMERIS_TYPE":"0","OBJECT_TYPE":"PAYLOAD","FILE":"3498404","MEAN_MOTION":"15.06392894","OBJECT_ID":"2021-038N","SEMIMAJOR_AXIS":"6925.370","GP_ID":"206512203","APOAPSIS":"548.267","TLE_LINE2":"2 48365  53.0542 332.1358 0001489  94.1294 265.9866 15.06392894 62448","SITE":"AFETR","CENTER_NAME":"EARTH","PERIAPSIS":"546.204"},{"APOAPSIS":"548.150","OBJECT_ID":"2021-038P","SEMIMAJOR_AXIS":"6925.348","GP_ID":"206512452","CENTER_NAME":"EARTH","TLE_LINE2":"2 48366  53.0568 327.1879 0001353  81.5945 278.5198 15.06400115 62503","SITE":"AFETR","PERIAPSIS":"546.276","EPHEMERIS_TYPE":"0","OBJECT_TYPE":"PAYLOAD","FILE":"3498404","MEAN_MOTION":"15.06400115","LAUNCH_DATE":"2021-05-04","MEAN_MOTION_DDOT":"0.0000000000000","NORAD_CAT_ID":"48366","RA_OF_ASC_NODE":"327.1879","EPOCH":"2022-06-20T20:30:03.508128","MEAN_ELEMENT_THEORY":"SGP4","REF_FRAME":"TEME","COUNTRY_CODE":"US","BSTAR":"0.00002577300000","TLE_LINE1":"1 48366U 21038P   22171.85420727  .00000102  00000-0  25773-4 0  9990","ELEMENT_SET_NO":"999","PERIOD":"95.592","RCS_SIZE":"LARGE","INCLINATION":"53.0568","DECAY_DATE":null,"ARG_OF_PERICENTER":"81.5945","TIME_SYSTEM":"UTC","CLASSIFICATION_TYPE":"U","ECCENTRICITY":"0.00013530","MEAN_ANOMALY":"278.5198","OBJECT_NAME":"STARLINK-2631","MEAN_MOTION_DOT":"0.00000102","REV_AT_EPOCH":"6250"}];
